
# Worst residual: 4.70 km
# MJD 60281.000000 (2023 Dec  3  0:00)
TESS = 2018-038A = NORAD 43435
1 43435U 18038A   23337.49919926  .00000000  00000-0  00000-0 2 20643
2 43435 045.7029 070.8348 4676999 154.9813 252.1450 00.07614336    08

# Worst residual: 2.16 km
# MJD 60282.000000 (2023 Dec  4  0:00)
TESS = 2018-038A = NORAD 43435
1 43435U 18038A   23338.49919926  .00000000  00000-0  00000-0 2 20644
2 43435 045.7488 070.8501 4676131 154.9514 279.5750 00.07612485    03

# Worst residual: 2.99 km
# MJD 60283.000000 (2023 Dec  5  0:00)
TESS = 2018-038A = NORAD 43435
1 43435U 18038A   23339.49919926  .00000000  00000-0  00000-0 2 20645
2 43435 045.7583 070.8569 4678526 154.9546 307.0013 00.07611835    05

# Worst residual: 7.85 km
# MJD 60284.000000 (2023 Dec  6  0:00)
TESS = 2018-038A = NORAD 43435
1 43435U 18038A   23340.49919926  .00000000  00000-0  00000-0 2 20647
2 43435 045.7444 070.8137 4683431 154.9656 334.4529 00.07603593    03

# Worst residual: 6.55 km
# MJD 60285.000000 (2023 Dec  7  0:00)
TESS = 2018-038A = NORAD 43435
1 43435U 18038A   23341.49919926  .00000000  00000-0  00000-0 2 20648
2 43435 045.7663 070.7508 4687500 154.9827 001.8347 00.07594369    01

# Worst residual: 2.70 km
# MJD 60286.000000 (2023 Dec  8  0:00)
TESS = 2018-038A = NORAD 43435
1 43435U 18038A   23342.49919926  .00000000  00000-0  00000-0 2 20649
2 43435 045.7890 070.7549 4683550 154.9434 029.2247 00.07603938    09

# Worst residual: 5.77 km
# MJD 60287.000000 (2023 Dec  9  0:00)
TESS = 2018-038A = NORAD 43435
1 43435U 18038A   23343.49919926  .00000000  00000-0  00000-0 2 20640
2 43435 045.7862 070.7393 4678376 154.9132 056.7049 00.07614312    03

# Worst residual: 8.54 km
# MJD 60288.000000 (2023 Dec 10  0:00)
TESS = 2018-038A = NORAD 43435
1 43435U 18038A   23344.49919926  .00000000  00000-0  00000-0 2 20641
2 43435 045.7923 070.6820 4669038 155.0166 084.1577 00.07612484    08

# Worst residual: 11.21 km
# MJD 60289.000000 (2023 Dec 11  0:00)
TESS = 2018-038A = NORAD 43435
1 43435U 18038A   23345.49919926  .00000000  00000-0  00000-0 2 20642
2 43435 045.8190 070.6082 4648812 155.2462 111.4811 00.07595272    03

# Worst residual: 12.85 km
# MJD 60290.000000 (2023 Dec 12  0:00)
TESS = 2018-038A = NORAD 43435
1 43435U 18038A   23346.49919926  .00000000  00000-0  00000-0 2 20643
2 43435 045.8620 070.5386 4614952 155.5178 138.6355 00.07565354    04

# Worst residual: 14.29 km
# MJD 60291.000000 (2023 Dec 13  0:00)
TESS = 2018-038A = NORAD 43435
1 43435U 18038A   23347.49919926  .00000000  00000-0  00000-0 2 20644
2 43435 045.9081 070.4903 4568903 155.7388 165.6172 00.07527060    08

# Worst residual: 15.49 km
# MJD 60292.000000 (2023 Dec 14  0:00)
TESS = 2018-038A = NORAD 43435
1 43435U 18038A   23348.49919926  .00000000  00000-0  00000-0 2 20645
2 43435 045.9423 070.4674 4515708 155.8422 192.4479 00.07485654    08

# Worst residual: 15.47 km
# MJD 60293.000000 (2023 Dec 15  0:00)
TESS = 2018-038A = NORAD 43435
1 43435U 18038A   23349.49919926  .00000000  00000-0  00000-0 2 20646
2 43435 045.9538 070.4630 4462474 155.8066 219.1586 00.07446630    09

# Worst residual: 14.19 km
# MJD 60294.000000 (2023 Dec 16  0:00)
TESS = 2018-038A = NORAD 43435
1 43435U 18038A   23350.49919926  .00000000  00000-0  00000-0 2 20648
2 43435 045.9399 070.4629 4416523 155.6655 245.7776 00.07415340    08

# Worst residual: 11.69 km
# MJD 60295.000000 (2023 Dec 17  0:00)
TESS = 2018-038A = NORAD 43435
1 43435U 18038A   23351.49919926  .00000000  00000-0  00000-0 2 20649
2 43435 045.9070 070.4520 4383150 155.5008 272.3263 00.07396469    01

# Worst residual: 8.30 km
# MJD 60296.000000 (2023 Dec 18  0:00)
TESS = 2018-038A = NORAD 43435
1 43435U 18038A   23352.49919926  .00000000  00000-0  00000-0 2 20640
2 43435 045.8696 070.4208 4363365 155.4103 298.8320 00.07392775    01

# Worst residual: 5.97 km
# MJD 60297.000000 (2023 Dec 19  0:00)
TESS = 2018-038A = NORAD 43435
1 43435U 18038A   23353.49919926  .00000000  00000-0  00000-0 2 20641
2 43435 045.8457 070.3710 4353289 155.4323 325.3589 00.07401288    04

# Worst residual: 5.02 km
# MJD 60298.000000 (2023 Dec 20  0:00)
TESS = 2018-038A = NORAD 43435
1 43435U 18038A   23354.49919926  .00000000  00000-0  00000-0 2 20642
2 43435 045.8508 070.3216 4350298 155.4607 351.9954 00.07405806    05

# Worst residual: 6.63 km
# MJD 60299.000000 (2023 Dec 21  0:00)
TESS = 2018-038A = NORAD 43435
1 43435U 18038A   23355.49919926  .00000000  00000-0  00000-0 2 20643
2 43435 045.8798 070.3115 4351693 155.4004 018.6757 00.07404208    08

# Worst residual: 9.00 km
# MJD 60300.000000 (2023 Dec 22  0:00)
TESS = 2018-038A = NORAD 43435
1 43435U 18038A   23356.49919926  .00000000  00000-0  00000-0 2 20644
2 43435 045.9001 070.3419 4345525 155.1283 045.5808 00.07431387    00

# Worst residual: 10.71 km
# MJD 60301.000000 (2023 Dec 23  0:00)
TESS = 2018-038A = NORAD 43435
1 43435U 18038A   23357.49919926  .00000000  00000-0  00000-0 2 20645
2 43435 045.9036 070.3804 4340530 154.7086 072.8640 00.07471840    08

# Worst residual: 11.85 km
# MJD 60302.000000 (2023 Dec 24  0:00)
TESS = 2018-038A = NORAD 43435
1 43435U 18038A   23358.49919926  .00000000  00000-0  00000-0 2 20646
2 43435 045.8975 070.4099 4337510 154.3084 100.4176 00.07506176    07

# Worst residual: 11.97 km
# MJD 60303.000000 (2023 Dec 25  0:00)
TESS = 2018-038A = NORAD 43435
1 43435U 18038A   23359.49919926  .00000000  00000-0  00000-0 2 20647
2 43435 045.8894 070.4279 4332607 153.9896 128.0971 00.07526296    09

# Worst residual: 11.44 km
# MJD 60304.000000 (2023 Dec 26  0:00)
TESS = 2018-038A = NORAD 43435
1 43435U 18038A   23360.49919926  .00000000  00000-0  00000-0 2 20649
2 43435 045.8834 070.4359 4322533 153.7349 155.8022 00.07531001    05

# Worst residual: 10.89 km
# MJD 60305.000000 (2023 Dec 27  0:00)
TESS = 2018-038A = NORAD 43435
1 43435U 18038A   23361.49919926  .00000000  00000-0  00000-0 2 20640
2 43435 045.8821 070.4371 4305406 153.5041 183.4507 00.07520828    02

# Worst residual: 10.43 km
# MJD 60306.000000 (2023 Dec 28  0:00)
TESS = 2018-038A = NORAD 43435
1 43435U 18038A   23362.49919926  .00000000  00000-0  00000-0 2 20641
2 43435 045.8799 070.4380 4284674 153.2458 210.9985 00.07500417    06

# Worst residual: 10.09 km
# MJD 60307.000000 (2023 Dec 29  0:00)
TESS = 2018-038A = NORAD 43435
1 43435U 18038A   23363.49919926  .00000000  00000-0  00000-0 2 20642
2 43435 045.8701 070.4394 4262911 152.9381 238.4092 00.07473000    06

# Worst residual: 10.18 km
# MJD 60308.000000 (2023 Dec 30  0:00)
TESS = 2018-038A = NORAD 43435
1 43435U 18038A   23364.49919926  .00000000  00000-0  00000-0 2 20643
2 43435 045.8438 070.4343 4244905 152.5987 265.6541 00.07443532    06

# Worst residual: 10.73 km
# MJD 60309.000000 (2023 Dec 31  0:00)
TESS = 2018-038A = NORAD 43435
1 43435U 18038A   23365.49919926  .00000000  00000-0  00000-0 2 20644
2 43435 045.7965 070.4037 4234226 152.2919 292.7092 00.07416952    05
